PROBA-1                 
1 26958U 01049B   26115.96091260  .00002435  00000+0  16080-3 0  9993
2 26958  97.9623 122.6741 0054044 300.3509  59.2379 15.07294087335759
CUTE-1 (CO-55)          
1 27844U 03031E   26115.77207239  .00000259  00000+0  13095-3 0  9990
2 27844  98.6757 124.9877 0009142 345.2337  14.8573 14.24301725184213
CUBESAT XI-IV (CO-57)   
1 27848U 03031J   26115.94518094  .00000257  00000+0  13187-3 0  9997
2 27848  98.6790 124.9135 0009431   3.4724 356.6519 14.23591802183947
APRIZESAT 4             
1 35684U 09041D   26115.72634659  .00000758  00000+0  96939-4 0  9996
2 35684  98.1424 190.0017 0044421 130.7481 229.7603 14.83797081903585
APRIZESAT 3             
1 35686U 09041F   26115.93296260  .00001229  00000+0  11139-3 0  9995
2 35686  98.1994 266.6804 0060870 239.1237 120.3988 14.96057885908562
PROBA-2                 
1 36037U 09059B   26115.76434153  .00000171  00000+0  50301-4 0  9991
2 36037  98.2451 299.8446 0014569  83.6741 276.6115 14.54839118873905
APRIZESAT 5             
1 37792U 11044E   26115.78187305  .00000735  00000+0  10021-3 0  9993
2 37792  98.2435  47.3492 0052451 170.0363 190.1902 14.80968305791033
APRIZESAT 6             
1 37793U 11044F   26115.70781365  .00000586  00000+0  90313-4 0  9999
2 37793  98.2390  25.1312 0041833 253.4905 170.0029 14.76842626789406
PROBA-V                 
1 39159U 13021A   26115.89736648  .00000086  00000+0  55918-4 0  9995
2 39159  98.3560  97.0948 0003037 293.6996  66.3865 14.23585503673673
APRIZESAT 7             
1 39416U 13066A   26115.82542282  .00001440  00000+0  14799-3 0  9998
2 39416  97.7667  69.8157 0036660  27.1720 333.1407 14.91431282673421
APRIZESAT 8             
1 39425U 13066K   26115.81026667  .00000952  00000+0  10889-3 0  9994
2 39425  97.8182  64.0265 0047519  97.9892 262.6720 14.87534638671887
BUGSAT-1 (TITA)         
1 40014U 14033E   26115.93484154  .00004057  00000+0  21894-3 0  9995
2 40014  98.0397 205.4565 0028242   2.0916 358.0427 15.15046247647922
SAUDISAT 4              
1 40016U 14033G   26115.83950341  .00000765  00000+0  10774-3 0  9999
2 40016  97.7510 263.8078 0043578 242.8791 116.7974 14.79464941638333
APRIZESAT 9             
1 40018U 14033J   26115.94365624  .00000538  00000+0  86506-4 0  9992
2 40018  97.8979 250.4431 0066351   9.5054 350.7393 14.74154476635868
APRIZESAT 10            
1 40019U 14033K   26115.88109577  .00000609  00000+0  10296-3 0  9990
2 40019  97.9568 244.0325 0080205  81.0576 279.9700 14.70833553634569
TECHDEMOSAT-1 (TDS-1)   
1 40076U 14037H   26115.90754658  .00010863  00000+0  62830-3 0  9990
2 40076  98.3812 102.9805 0008124  86.9262 273.2896 15.12447239640323
TECHNOSAT               
1 42829U 17042E   26115.91659863  .00004181  00000+0  30092-3 0  9991
2 42829  97.4231 275.5930 0016421 272.2799  87.6547 15.04631896478847
FLYING LAPTOP           
1 42831U 17042G   26115.91973495  .00002783  00000+0  22296-3 0  9997
2 42831  97.4455 273.5510 0018221 303.8617  56.0873 15.00808440478614
HAWK-A                  
1 43765U 18099H   26115.70022158  .00007697  00000+0  31515-3 0  9998
2 43765  97.3965 168.6348 0037068 109.8643 250.6595 15.23942854405102
HAWK-B                  
1 43794U 18099AN  26115.65989217  .00006507  00000+0  28213-3 0  9992
2 43794  97.4013 168.1180 0033981 126.5669 233.8703 15.22174947405048
HAWK-C                  
1 43799U 18099AT  26115.66219362  .00008872  00000+0  32604-3 0  9991
2 43799  97.3942 169.2570 0042940 111.0387 249.5452 15.27257797405897
SALSAT                  
1 46495U 20068K   26115.93492936  .00009598  00000+0  34294-3 0  9999
2 46495  97.8865 115.8517 0011523 121.2153 239.0216 15.29005761307377
HAWK-2C                 
1 47502U 21006CT  26115.65242948  .00006460  00000+0  19847-3 0  9999
2 47502  97.2332 161.0225 0007807  42.4509 317.7336 15.34014927291445
HAWK-2A                 
1 47505U 21006CW  26115.65538821  .00006479  00000+0  19900-3 0  9990
2 47505  97.2375 161.6722 0007497  46.4014 313.7850 15.34027267291441
HAWK-2B                 
1 47508U 21006CZ  26115.65246806  .00007351  00000+0  22540-3 0  9996
2 47508  97.2247 160.0876 0007959  43.5958 316.5913 15.34029930291443
HAWK-3B                 
1 48931U 21059BE  26115.52654821  .00053561  00000+0  53699-3 0  9994
2 48931  97.6712 307.4247 0005975 156.6043 203.5489 15.65350301269600
HAWK-3C                 
1 48948U 21059BX  26115.59013786  .00043782  00000+0  43962-3 0  9994
2 48948  97.6840 313.0851 0006438 154.1588 205.9994 15.65350352269610
HAWK-3A                 
1 48957U 21059CG  26115.52609128  .00046182  00000+0  46351-3 0  9990
2 48957  97.6785 310.2636 0006115 155.4342 204.7209 15.65353655269606
HAWK-5C                 
1 52754U 22057Y   26115.89505306  .00021685  00000+0  39542-3 0  9997
2 52754  97.6525 272.2983 0003704 247.3820 112.7039 15.49469619218246
HAWK-5B                 
1 52756U 22057AA  26115.89492748  .00022935  00000+0  41798-3 0  9999
2 52756  97.6527 270.6411 0003890 242.2336 117.8520 15.49472631218249
HAWK-5A                 
1 52757U 22057AB  26115.89467959  .00021772  00000+0  39697-3 0  9999
2 52757  97.6521 271.4743 0004092 244.3908 115.6920 15.49468636218244
HAWK-6B                 
1 55324U 23011A   26115.77937903  .00005790  00000+0  25315-3 0  9995
2 55324  40.4993 297.6380 0002827 354.1039   5.9736 15.22446980179850
HAWK-6C                 
1 55326U 23011C   26115.84434810  .00005828  00000+0  25474-3 0  9992
2 55326  40.4983 294.1038 0003437 342.1905  17.8784 15.22450942179870
HAWK-6A                 
1 55327U 23011D   26115.84438109  .00005827  00000+0  25471-3 0  9994
2 55327  40.4992 295.7227 0003166 338.8536  21.2142 15.22449836179876
HAWK-7A                 
1 56191U 23054P   26115.68870260  .00005696  00000+0  21900-3 0  9998
2 56191  97.2766   4.3630 0002115 182.0167 178.1064 15.26793077169012
HAWK-7B                 
1 56193U 23054R   26115.68863695  .00005790  00000+0  22258-3 0  9996
2 56193  97.2795   2.6079 0001257 175.0506 185.0746 15.26793457169015
HAWK-7C                 
1 56200U 23054Y   26115.68853094  .00005685  00000+0  21860-3 0  9998
2 56200  97.2770   3.3931 0001795 168.8880 191.2400 15.26794294169010
